start=new Date('2022-03-14T00:00:00.000Z').valueOf();
sats=[{"ECCENTRICITY":"0.00015780","EPHEMERIS_TYPE":"0","CLASSIFICATION_TYPE":"U","OBJECT_NAME":"STARLINK-2743","MEAN_MOTION_DOT":"0.00007444","MEAN_MOTION":"15.06361883","TIME_SYSTEM":"UTC","ELEMENT_SET_NO":"999","FILE":"3358388","EPOCH":"2022-03-13T22:00:01.999584","SITE":"AFETR","TLE_LINE2":"2 48682  53.0551 131.3195 0001578  55.9797 251.7418 15.06361883  3591","LAUNCH_DATE":"2021-05-26","PERIAPSIS":"546.238","RA_OF_ASC_NODE":"131.3195","ARG_OF_PERICENTER":"55.9797","RCS_SIZE":"LARGE","OBJECT_TYPE":"PAYLOAD","OBJECT_ID":"2021-044AW","INCLINATION":"53.0551","COUNTRY_CODE":"US","NORAD_CAT_ID":"48682","MEAN_MOTION_DDOT":"0.0000000000000","DECAY_DATE":null,"BSTAR":"0.00051861000000","REF_FRAME":"TEME","PERIOD":"95.595","MEAN_ANOMALY":"251.7418","MEAN_ELEMENT_THEORY":"SGP4","CENTER_NAME":"EARTH","APOAPSIS":"548.423","GP_ID":"198689931","SEMIMAJOR_AXIS":"6925.465","TLE_LINE1":"1 48682U 21044AW  22072.91668981  .00007444  00000-0  51861-3 0  9993","REV_AT_EPOCH":"359"},{"APOAPSIS":"548.220","MEAN_ELEMENT_THEORY":"SGP4","CENTER_NAME":"EARTH","MEAN_ANOMALY":"42.5814","PERIOD":"95.594","REF_FRAME":"TEME","BSTAR":"0.00074807000000","REV_AT_EPOCH":"360","TLE_LINE1":"1 48683U 21044AX  22072.91668981  .00010870  00000-0  74807-3 0  9996","SEMIMAJOR_AXIS":"6925.436","GP_ID":"198689679","OBJECT_ID":"2021-044AX","RCS_SIZE":"LARGE","OBJECT_TYPE":"PAYLOAD","MEAN_MOTION_DDOT":"0.0000000000000","DECAY_DATE":null,"NORAD_CAT_ID":"48683","COUNTRY_CODE":"US","INCLINATION":"53.0559","FILE":"3358388","EPOCH":"2022-03-13T22:00:01.999584","ELEMENT_SET_NO":"999","TIME_SYSTEM":"UTC","MEAN_MOTION":"15.06371483","ARG_OF_PERICENTER":"65.1394","RA_OF_ASC_NODE":"131.3324","PERIAPSIS":"546.382","LAUNCH_DATE":"2021-05-26","TLE_LINE2":"2 48683  53.0559 131.3324 0001327  65.1394  42.5814 15.06371483  3607","SITE":"AFETR","EPHEMERIS_TYPE":"0","ECCENTRICITY":"0.00013270","MEAN_MOTION_DOT":"0.00010870","OBJECT_NAME":"STARLINK-2756","CLASSIFICATION_TYPE":"U"},{"PERIOD":"95.592","MEAN_ANOMALY":"306.5059","REF_FRAME":"TEME","BSTAR":"-0.00020201000000","APOAPSIS":"548.213","MEAN_ELEMENT_THEORY":"SGP4","CENTER_NAME":"EARTH","REV_AT_EPOCH":"4457","TLE_LINE1":"1 48684U 21044AY  22072.55450596 -.00003289  00000-0 -20201-3 0  9995","GP_ID":"198690426","SEMIMAJOR_AXIS":"6925.345","RCS_SIZE":"LARGE","OBJECT_TYPE":"PAYLOAD","OBJECT_ID":"2021-044AY","COUNTRY_CODE":"US","INCLINATION":"53.0559","DECAY_DATE":null,"MEAN_MOTION_DDOT":"0.0000000000000","NORAD_CAT_ID":"48684","TIME_SYSTEM":"UTC","MEAN_MOTION":"15.06401069","EPOCH":"2022-03-13T13:18:29.314944","FILE":"3358388","ELEMENT_SET_NO":"999","LAUNCH_DATE":"2021-05-26","TLE_LINE2":"2 48684  53.0559 147.9588 0001448  53.6063 306.5059 15.06401069 44571","SITE":"AFETR","ARG_OF_PERICENTER":"53.6063","RA_OF_ASC_NODE":"147.9588","PERIAPSIS":"546.207","ECCENTRICITY":"0.00014480","EPHEMERIS_TYPE":"0","CLASSIFICATION_TYPE":"U","MEAN_MOTION_DOT":"-0.00003289","OBJECT_NAME":"STARLINK-2741"},{"APOAPSIS":"548.080","MEAN_ELEMENT_THEORY":"SGP4","CENTER_NAME":"EARTH","MEAN_ANOMALY":"205.0659","PERIOD":"95.592","REF_FRAME":"TEME","BSTAR":"-0.00007231400000","TLE_LINE1":"1 48685U 21044AZ  22072.91668981 -.00001358  00000-0 -72314-4 0  9993","REV_AT_EPOCH":"359","GP_ID":"198691174","SEMIMAJOR_AXIS":"6925.362","OBJECT_ID":"2021-044AZ","OBJECT_TYPE":"PAYLOAD","RCS_SIZE":"LARGE","MEAN_MOTION_DDOT":"0.0000000000000","DECAY_DATE":null,"NORAD_CAT_ID":"48685","COUNTRY_CODE":"US","INCLINATION":"53.0547","FILE":"3358388","EPOCH":"2022-03-13T22:00:01.999584","ELEMENT_SET_NO":"999","TIME_SYSTEM":"UTC","MEAN_MOTION":"15.06395528","ARG_OF_PERICENTER":"82.6405","RA_OF_ASC_NODE":"131.3210","PERIAPSIS":"546.374","LAUNCH_DATE":"2021-05-26","TLE_LINE2":"2 48685  53.0547 131.3210 0001232  82.6405 205.0659 15.06395528  3599","SITE":"AFETR","EPHEMERIS_TYPE":"0","ECCENTRICITY":"0.00012320","MEAN_MOTION_DOT":"-0.00001358","OBJECT_NAME":"STARLINK-2751","CLASSIFICATION_TYPE":"U"},{"APOAPSIS":"548.342","MEAN_ELEMENT_THEORY":"SGP4","CENTER_NAME":"EARTH","BSTAR":"-0.00031330000000","MEAN_ANOMALY":"30.7208","PERIOD":"95.594","REF_FRAME":"TEME","GP_ID":"198655238","SEMIMAJOR_AXIS":"6925.456","TLE_LINE1":"1 48686U 21044BA  22072.91668981 -.00004940  00000-0 -31330-3 0  9996","REV_AT_EPOCH":"4566","OBJECT_ID":"2021-044BA","RCS_SIZE":"LARGE","OBJECT_TYPE":"PAYLOAD","NORAD_CAT_ID":"48686","MEAN_MOTION_DDOT":"0.0000000000000","DECAY_DATE":null,"COUNTRY_CODE":"US","INCLINATION":"53.0543","FILE":"3357930","EPOCH":"2022-03-13T22:00:01.999584","ELEMENT_SET_NO":"999","MEAN_MOTION":"15.06364811","TIME_SYSTEM":"UTC","ARG_OF_PERICENTER":"49.5850","RA_OF_ASC_NODE":"136.3215","PERIAPSIS":"546.301","TLE_LINE2":"2 48686  53.0543 136.3215 0001473  49.5850  30.7208 15.06364811 45667","SITE":"AFETR","LAUNCH_DATE":"2021-05-26","EPHEMERIS_TYPE":"0","ECCENTRICITY":"0.00014730","OBJECT_NAME":"STARLINK-2629","MEAN_MOTION_DOT":"-0.00004940","CLASSIFICATION_TYPE":"U"},{"APOAPSIS":"548.364","MEAN_ELEMENT_THEORY":"SGP4","CENTER_NAME":"EARTH","BSTAR":"0.00055102000000","MEAN_ANOMALY":"8.4380","PERIOD":"95.595","REF_FRAME":"TEME","GP_ID":"198690180","SEMIMAJOR_AXIS":"6925.480","TLE_LINE1":"1 48687U 21044BB  22072.91668981  .00007926  00000-0  55102-3 0  9995","REV_AT_EPOCH":"360","OBJECT_ID":"2021-044BB","RCS_SIZE":"LARGE","OBJECT_TYPE":"PAYLOAD","NORAD_CAT_ID":"48687","DECAY_DATE":null,"MEAN_MOTION_DDOT":"0.0000000000000","COUNTRY_CODE":"US","INCLINATION":"53.0562","EPOCH":"2022-03-13T22:00:01.999584","FILE":"3358388","ELEMENT_SET_NO":"999","MEAN_MOTION":"15.06357245","TIME_SYSTEM":"UTC","ARG_OF_PERICENTER":"61.7782","RA_OF_ASC_NODE":"126.3315","PERIAPSIS":"546.325","TLE_LINE2":"2 48687  53.0562 126.3315 0001472  61.7782   8.4380 15.06357245  3602","SITE":"AFETR","LAUNCH_DATE":"2021-05-26","EPHEMERIS_TYPE":"0","ECCENTRICITY":"0.00014720","OBJECT_NAME":"STARLINK-2627","MEAN_MOTION_DOT":"0.00007926","CLASSIFICATION_TYPE":"U"},{"INCLINATION":"53.0543","COUNTRY_CODE":"US","MEAN_MOTION_DDOT":"0.0000000000000","DECAY_DATE":null,"NORAD_CAT_ID":"48688","RCS_SIZE":"LARGE","OBJECT_TYPE":"PAYLOAD","OBJECT_ID":"2021-044BC","REV_AT_EPOCH":"4574","TLE_LINE1":"1 48688U 21044BC  22072.91668981  .00015544  00000-0  10613-2 0  9998","GP_ID":"198659247","SEMIMAJOR_AXIS":"6925.476","REF_FRAME":"TEME","MEAN_ANOMALY":"335.5045","PERIOD":"95.595","BSTAR":"0.00106130000000","MEAN_ELEMENT_THEORY":"SGP4","CENTER_NAME":"EARTH","APOAPSIS":"548.165","CLASSIFICATION_TYPE":"U","MEAN_MOTION_DOT":"0.00015544","OBJECT_NAME":"STARLINK-2742","ECCENTRICITY":"0.00011900","EPHEMERIS_TYPE":"0","LAUNCH_DATE":"2021-05-26","SITE":"AFETR","TLE_LINE2":"2 48688  53.0543 126.3162 0001190  74.6434 335.5045 15.06358382 45742","RA_OF_ASC_NODE":"126.3162","PERIAPSIS":"546.517","ARG_OF_PERICENTER":"74.6434","TIME_SYSTEM":"UTC","MEAN_MOTION":"15.06358382","ELEMENT_SET_NO":"999","EPOCH":"2022-03-13T22:00:01.999584","FILE":"3358072"},{"OBJECT_ID":"2021-044BD","OBJECT_TYPE":"PAYLOAD","RCS_SIZE":"LARGE","NORAD_CAT_ID":"48689","MEAN_MOTION_DDOT":"0.0000000000000","DECAY_DATE":null,"COUNTRY_CODE":"US","INCLINATION":"53.0549","APOAPSIS":"550.980","MEAN_ELEMENT_THEORY":"SGP4","CENTER_NAME":"EARTH","BSTAR":"-0.00025959000000","MEAN_ANOMALY":"57.6342","PERIOD":"95.648","REF_FRAME":"TEME","GP_ID":"198690674","SEMIMAJOR_AXIS":"6928.026","TLE_LINE1":"1 48689U 21044BD  22072.91668981 -.00004054  00000-0 -25959-3 0  9995","REV_AT_EPOCH":"359","EPHEMERIS_TYPE":"0","ECCENTRICITY":"0.00015720","OBJECT_NAME":"STARLINK-2617","MEAN_MOTION_DOT":"-0.00004054","CLASSIFICATION_TYPE":"U","EPOCH":"2022-03-13T22:00:01.999584","FILE":"3358388","ELEMENT_SET_NO":"999","MEAN_MOTION":"15.05526803","TIME_SYSTEM":"UTC","ARG_OF_PERICENTER":"61.8361","PERIAPSIS":"548.802","RA_OF_ASC_NODE":"131.1066","TLE_LINE2":"2 48689  53.0549 131.1066 0001572  61.8361  57.6342 15.05526803  3590","SITE":"AFETR","LAUNCH_DATE":"2021-05-26"},{"FILE":"3358388","EPOCH":"2022-03-13T22:00:01.999584","ELEMENT_SET_NO":"999","MEAN_MOTION":"15.06362669","TIME_SYSTEM":"UTC","ARG_OF_PERICENTER":"67.3818","PERIAPSIS":"546.383","RA_OF_ASC_NODE":"141.3220","TLE_LINE2":"2 48690  53.0543 141.3220 0001364  67.3818 280.3343 15.06362669  3593","SITE":"AFETR","LAUNCH_DATE":"2021-05-26","EPHEMERIS_TYPE":"0","ECCENTRICITY":"0.00013640","OBJECT_NAME":"STARLINK-2740","MEAN_MOTION_DOT":"-0.00005897","CLASSIFICATION_TYPE":"U","APOAPSIS":"548.273","MEAN_ELEMENT_THEORY":"SGP4","CENTER_NAME":"EARTH","BSTAR":"-0.00037771000000","PERIOD":"95.595","MEAN_ANOMALY":"280.3343","REF_FRAME":"TEME","GP_ID":"198689932","SEMIMAJOR_AXIS":"6925.463","REV_AT_EPOCH":"359","TLE_LINE1":"1 48690U 21044BE  22072.91668981 -.00005897  00000-0 -37771-3 0  9998","OBJECT_ID":"2021-044BE","OBJECT_TYPE":"PAYLOAD","RCS_SIZE":"LARGE","NORAD_CAT_ID":"48690","DECAY_DATE":null,"MEAN_MOTION_DDOT":"0.0000000000000","COUNTRY_CODE":"US","INCLINATION":"53.0543"},{"COUNTRY_CODE":"US","INCLINATION":"53.0602","NORAD_CAT_ID":"48691","MEAN_MOTION_DDOT":"0.0000000000000","DECAY_DATE":null,"RCS_SIZE":"LARGE","OBJECT_TYPE":"PAYLOAD","OBJECT_ID":"2021-044BF","GP_ID":"198689680","SEMIMAJOR_AXIS":"6925.474","TLE_LINE1":"1 48691U 21044BF  22072.91668981  .00003425  00000-0  24898-3 0  9998","REV_AT_EPOCH":"360","BSTAR":"0.00024898000000","MEAN_ANOMALY":"79.6584","PERIOD":"95.595","REF_FRAME":"TEME","APOAPSIS":"548.483","CENTER_NAME":"EARTH","MEAN_ELEMENT_THEORY":"SGP4","CLASSIFICATION_TYPE":"U","OBJECT_NAME":"STARLINK-2750","MEAN_MOTION_DOT":"0.00003425","ECCENTRICITY":"0.00016520","EPHEMERIS_TYPE":"0","TLE_LINE2":"2 48691  53.0602 136.2973 0001652  55.5420  79.6584 15.06358958  3600","SITE":"AFETR","LAUNCH_DATE":"2021-05-26","ARG_OF_PERICENTER":"55.5420","RA_OF_ASC_NODE":"136.2973","PERIAPSIS":"546.195","MEAN_MOTION":"15.06358958","TIME_SYSTEM":"UTC","EPOCH":"2022-03-13T22:00:01.999584","FILE":"3358388","ELEMENT_SET_NO":"999"}];
